{
    "links": {
        "self": "http://www.neowsapp.com/rest/v1/neo/54053922?api_key=iIulBulltgU6a56xZRHN4H3l9WmuAYTsLGpBGhQ2"
    },
    "id": "54053922",
    "neo_reference_id": "54053922",
    "name": "(2020 RM3)",
    "designation": "2020 RM3",
    "nasa_jpl_url": "http://ssd.jpl.nasa.gov/sbdb.cgi?sstr=54053922",
    "absolute_magnitude_h": 23.09,
    "estimated_diameter": {
        "kilometers": {
            "estimated_diameter_min": 0.0640552863,
            "estimated_diameter_max": 0.1432319745
        },
        "meters": {
            "estimated_diameter_min": 64.0552862945,
            "estimated_diameter_max": 143.2319744727
        },
        "miles": {
            "estimated_diameter_min": 0.0398020973,
            "estimated_diameter_max": 0.0890001952
        },
        "feet": {
            "estimated_diameter_min": 210.1551454864,
            "estimated_diameter_max": 469.921191129
        }
    },
    "is_potentially_hazardous_asteroid": false,
    "close_approach_data": [
        {
            "close_approach_date": "2001-09-03",
            "close_approach_date_full": "2001-Sep-03 23:27",
            "epoch_date_close_approach": 999559620000,
            "relative_velocity": {
                "kilometers_per_second": "3.2213050898",
                "kilometers_per_hour": "11596.6983231925",
                "miles_per_hour": "7205.7373553193"
            },
            "miss_distance": {
                "astronomical": "0.3093416809",
                "lunar": "120.3339138701",
                "kilometers": "46276856.564859683",
                "miles": "28755105.2774543054"
            },
            "orbiting_body": "Earth"
        },
        {
            "close_approach_date": "2011-01-23",
            "close_approach_date_full": "2011-Jan-23 15:18",
            "epoch_date_close_approach": 1295795880000,
            "relative_velocity": {
                "kilometers_per_second": "6.6642344251",
                "kilometers_per_hour": "23991.24393034",
                "miles_per_hour": "14907.2259854938"
            },
            "miss_distance": {
                "astronomical": "0.0341098486",
                "lunar": "13.2687311054",
                "kilometers": "5102760.696582482",
                "miles": "3170708.4691509716"
            },
            "orbiting_body": "Mars"
        },
        {
            "close_approach_date": "2020-09-14",
            "close_approach_date_full": "2020-Sep-14 11:52",
            "epoch_date_close_approach": 1600084320000,
            "relative_velocity": {
                "kilometers_per_second": "3.2718582766",
                "kilometers_per_hour": "11778.6897958258",
                "miles_per_hour": "7318.8197789674"
            },
            "miss_distance": {
                "astronomical": "0.2670016273",
                "lunar": "103.8636330197",
                "kilometers": "39942874.730613851",
                "miles": "24819351.4689831038"
            },
            "orbiting_body": "Earth"
        }
    ],
    "orbital_data": {
        "orbit_id": "6",
        "orbit_determination_date": "2020-10-08 06:54:47",
        "first_observation_date": "2020-08-19",
        "last_observation_date": "2020-10-07",
        "data_arc_in_days": 49,
        "observations_used": 33,
        "orbit_uncertainty": "6",
        "minimum_orbit_intersection": ".266565",
        "jupiter_tisserand_invariant": "3.585",
        "epoch_osculation": "2459000.5",
        "eccentricity": ".4098206448112314",
        "semi_major_axis": "2.153636257926879",
        "inclination": "5.252200757940735",
        "ascending_node_longitude": "342.4501350210541",
        "orbital_period": "1154.40170160206",
        "perihelion_distance": "1.271031658014438",
        "perihelion_argument": "11.5406890130985",
        "aphelion_distance": "3.036240857839319",
        "perihelion_time": "2459108.100979002357",
        "mean_anomaly": "326.4446506037796",
        "mean_motion": ".3118498521791832",
        "equinox": "J2000",
        "orbit_class": {
            "orbit_class_type": "AMO",
            "orbit_class_description": "Near-Earth asteroid orbits similar to that of 1221 Amor",
            "orbit_class_range": "1.017 AU < q (perihelion) < 1.3 AU"
        }
    },
    "is_sentry_object": false
}